[{"OBJECT_NAME":"STARLINK-34472","OBJECT_ID":"2025-129Y","EPOCH":"2026-03-09T09:46:03.315648","MEAN_MOTION":14.98330059,"ECCENTRICITY":0.00046445,"INCLINATION":70.0008,"RA_OF_ASC_NODE":75.2207,"ARG_OF_PERICENTER":277.8623,"MEAN_ANOMALY":82.2009,"EPHEMERIS_TYPE":0,"CLASSIFICATION_TYPE":"U","NORAD_CAT_ID":64434,"ELEMENT_SET_NO":999,"REV_AT_EPOCH":4124,"BSTAR":0.00010171464,"MEAN_MOTION_DOT":1.121e-5,"MEAN_MOTION_DDOT":0},{"OBJECT_NAME":"CZ-6A DEB","OBJECT_ID":"2024-140XM","EPOCH":"2026-03-08T13:47:27.015936","MEAN_MOTION":14.68389112,"ECCENTRICITY":0.01435049,"INCLINATION":89.0591,"RA_OF_ASC_NODE":285.7653,"ARG_OF_PERICENTER":157.7449,"MEAN_ANOMALY":203.0084,"EPHEMERIS_TYPE":0,"CLASSIFICATION_TYPE":"U","NORAD_CAT_ID":61396,"ELEMENT_SET_NO":999,"REV_AT_EPOCH":7982,"BSTAR":0.00092985645,"MEAN_MOTION_DOT":6.31e-5,"MEAN_MOTION_DDOT":0}]
